C/2014 F3 (Sheppard-Trujillo),e,6.5289,326.9712,2.1877,16.22010,0.0150877,0.64839718,353.7913,03/21.0/2020,2000,g  6.0,4.0
# From MPC105541
C/2014 HU195 (Valdes-TOTAS),e,5.8173,115.7398,145.3767,22.12302,0.0094719,0.76792301,16.7370,03/21.0/2020,2000,g 10.5,4.0
# From MPC 98560
P/2014 L2 (NEOWISE),e,5.1948,149.3548,182.6268,6.304059,0.0622693,0.64779050,129.1122,03/21.0/2020,2000,g 12.0,4.0
# From MPC 90769
P/2014 L3 (Hill),e,6.2772,115.4720,178.6050,8.163369,0.0422571,0.77394632,88.3198,03/21.0/2020,2000,g 16.0,4.0
# From MPC103844
C/2014 M1 (PANSTARRS),e,160.2190,234.7770,337.1325,9620,0.0000010,0.99941823,0.0000,08/27.6180/2015,2000,g  9.0,4.0
# From MPC 91614
P/2014 M4 (PANSTARRS),e,3.3345,263.2848,147.9753,5.877395,0.0691714,0.59348372,132.3553,03/21.0/2020,2000,g 15.0,4.0
# From MPC103844
P/2014 MG4 (Spacewatch-PANSTARRS),e,9.3704,311.7381,299.0551,5.011687,0.0878473,0.26001338,216.8345,03/21.0/2020,2000,g  9.5,4.0
# From MPC103844
C/2014 N3 (NEOWISE),e,61.6604,19.8461,353.4020,1594,0.0000155,0.99757226,0.0000,03/12.6767/2015,2000,g  7.0,4.0
# From MPC 98560
P/2014 O3 (PANSTARRS),e,7.8090,87.6397,204.4955,7.558547,0.0474293,0.38640510,102.5357,03/21.0/2020,2000,g 10.5,4.0
# From MPEC 2020-AA5
C/2014 OE4 (PANSTARRS),h,12/12.4312/2016,81.3364,240.3998,65.8572,1.002528,6.247625,2000,11.0,2.0
# From MPC100578
C/2014 Q1 (PANSTARRS),e,43.0611,9.0724,119.9363,963.9892,0.0000329,0.99966962,0.0000,07/05.2162/2015,2000,g  8.0,4.0
# From MPC115880
C/2014 R3 (PANSTARRS),e,90.9005,334.0921,113.4617,7564,0.0000015,0.99903794,0.0000,08/08.7243/2016,2000,g  6.5,4.0
# From MPC 91615
P/2014 R5 (Lemmon-PANSTARRS),e,1.0883,126.5507,213.6985,4.057374,0.1205970,0.41325935,253.7254,03/21.0/2020,2000,g 15.0,4.0
# From MPC104790
C/2014 S2 (PANSTARRS),e,64.4711,8.1075,87.3565,171.3134,0.0004396,0.98784264,0.0000,12/09.0218/2015,2000,g 10.0,4.0
# From MPC 91616
P/2014 U4 (PANSTARRS),e,6.4290,11.9537,347.7463,3.507289,0.1500537,0.46547236,310.5475,03/21.0/2020,2000,g 18.0,4.0
# From MPC 95211
P/2014 V1 (PANSTARRS),e,22.5041,166.2085,177.5498,5.482604,0.0767757,0.53373399,144.7350,03/21.0/2020,2000,g 14.0,4.0
# From MPC 93586
P/2014 W1 (PANSTARRS),e,8.8398,246.2452,152.3249,4.460106,0.1046373,0.38864748,216.6354,03/21.0/2020,2000,g 15.5,4.0
# From MPC110493
C/2014 W2 (PANSTARRS),e,82.0340,69.9654,84.9381,600.6571,0.0000670,0.99555106,0.0000,03/08.5725/2016,2000,g  7.5,4.0
# From MPC105542
P/2014 W4 (PANSTARRS),e,15.2678,33.3485,67.9605,6.603175,0.0580865,0.35214159,89.5555,03/21.0/2020,2000,g 11.0,4.0
# From MPC 95211
C/2014 W6 (Catalina),h,03/18.1314/2015,53.4879,338.2008,209.9472,1.001232,3.097337,2000,10.5,4.0
# From MPC 91616
C/2014 W8 (PANSTARRS),e,41.9621,224.8302,227.9890,170.1345,0.0004441,0.97049533,0.0000,09/08.8529/2015,2000,g 11.0,4.0
# From MPC115880
C/2014 W10 (PANSTARRS),e,82.8667,43.1303,43.6688,853.1699,0.0000396,0.99112124,0.0000,03/04.7607/2016,2000,g  8.0,4.0
# From MPC107047
C/2014 W11 (PANSTARRS),e,21.0900,294.9497,227.7338,9.756966,0.0323394,0.63163646,57.3141,03/21.0/2020,2000,g 10.0,4.0
# From MPC 93587
P/2014 W12 (Gibbs),e,8.5141,299.2888,36.9201,3.517462,0.1494032,0.52394834,291.9628,03/21.0/2020,2000,g 15.0,4.0
# From MPC 94281
P/2014 X1 (Elenin),e,25.9981,61.5009,34.0224,6.212071,0.0636575,0.70856047,121.2488,03/21.0/2020,2000,g 15.0,4.0
# From MPC 96866
C/2014 XB8 (PANSTARRS),e,149.7915,37.4830,351.2893,618.3682,0.0000641,0.99514161,0.0000,04/03.9223/2015,2000,g 13.5,4.0
# From MPC100579
C/2014 Y1 (PANSTARRS),h,01/16.7727/2016,14.9168,19.5279,182.3423,1.001654,2.251000,2000,9.5,4.0
# From MPC 96279
C/2015 A1 (PANSTARRS),e,80.2028,341.0294,244.9343,20.23805,0.0108256,0.90131065,19.8661,03/21.0/2020,2000,g 14.5,4.0
# From MPC 93587
C/2015 A2 (PANSTARRS),p,08/01.8353/2015,109.1696,208.8369,5.341055,258.5042,2000,10.5,4.0
# From MPC 92275
P/2015 A3 (PANSTARRS),e,172.5279,277.1589,249.2076,7.807420,0.0451796,0.85177189,83.8944,03/21.0/2020,2000,g 20.0,4.0
# From MPC 99270
P/2015 B1 (PANSTARRS),e,18.0240,353.0702,188.7453,9.503274,0.0336430,0.36954507,55.4055,03/21.0/2020,2000,g  8.5,4.0
# From MPC108592
C/2015 B2 (PANSTARRS),h,05/06.0769/2016,105.0151,341.8709,284.7181,1.000199,3.368538,2000,9.5,4.0
# From MPC109141
P/2015 B4 (Lemmon-PANSTARRS),e,1.7603,266.0261,227.5199,8.538724,0.0395016,0.56091211,73.8430,03/21.0/2020,2000,g 11.0,4.0
# From MPC101096
P/2015 C1 (TOTAS-Gibbs),e,13.8851,348.8331,178.3938,6.589348,0.0582694,0.56035474,104.1774,03/21.0/2020,2000,g 12.5,4.0
# From MPC 95211
C/2015 C2 (SWAN),e,94.5451,49.4957,333.9528,344.3612,0.0001542,0.99795135,0.0000,03/03.9166/2015,2000,g 14.0,4.0
# From MPC119995
C/2015 D3 (PANSTARRS),h,05/03.1051/2016,128.5434,157.0382,2.9966,1.003865,8.149041,2000,5.5,4.0
# From MPC109141
P/2015 D5 (Kowalski),e,20.4936,74.0608,39.9866,8.979330,0.0366301,0.48899374,79.8445,03/21.0/2020,2000,g  9.0,4.0
# From MPC 96866
P/2015 D6 (Lemmon-PANSTARRS),e,20.2086,46.1171,125.2652,7.152380,0.0515262,0.36254926,88.5783,03/21.0/2020,2000,g 10.5,4.0
# From MPC112390
C/2015 ER61 (PANSTARRS),e,6.3456,235.2001,68.2288,460.5334,0.0000997,0.99773792,0.0000,05/10.2938/2017,2000,g 11.0,2.0
# From MPEC 2018-BF5
C/2015 E61-B (PANSTARRS),e,6.3471,235.2352,68.3180,1156,0.0000251,0.99909737,0.0000,05/10.2714/2017,2000,g 13.5,2.0
# From MPC109142
P/2015 F1 (PANSTARRS),e,2.8025,40.4057,187.4092,3.523931,0.1489920,0.27826078,272.7909,03/21.0/2020,2000,g 12.5,4.0
# From MPC 98561
C/2015 F2 (Polonia),e,28.7272,262.4503,352.2321,39.16705,0.0040209,0.96898257,7.1879,03/21.0/2020,2000,g 16.5,4.0
# From MPC 96279
C/2015 F3 (SWAN),e,73.5554,31.7217,57.4454,179.5268,0.0004097,0.99535138,0.0000,03/07.4448/2015,2000,g 14.5,4.0
# From MPC115880
C/2015 F4 (Jacques),e,48.8058,285.9193,36.3199,117.2610,0.0007762,0.98601559,0.0000,08/11.8644/2015,2000,g 11.0,4.0
# From MPC 95212
C/2015 F5 (SWAN-Xingming),e,149.3787,287.7500,13.4788,15.57389,0.0160365,0.97758229,0.0000,03/28.4223/2015,2000,g 15.5,4.0
# From MPC102096
C/2015 GX (PANSTARRS),e,90.2620,235.4899,108.8132,16.16472,0.0151653,0.87863056,25.2870,03/21.0/2020,2000,g 14.0,4.0
# From MPC109142
C/2015 G2 (MASTER),h,05/24.8030/2015,147.6627,110.2481,257.6473,1.000618,0.779235,2000,11.0,4.0
# From MPC 98561
C/2015 H1 (Bressi),e,140.6743,325.8491,21.9415,32.05101,0.0054318,0.93951569,9.8906,03/21.0/2020,2000,g 13.5,4.0
# From MPC117068
C/2015 H2 (PANSTARRS),h,09/14.2078/2016,33.6695,350.6902,288.0325,1.005498,4.973240,2000,7.5,4.0
# From MPC100280
P/2015 HG16 (PANSTARRS),e,18.8487,59.1835,47.2399,4.752720,0.0951241,0.34906873,199.4010,03/21.0/2020,2000,g 12.5,4.0
# From MPC101096
C/2015 J2 (PANSTARRS),e,17.2740,56.7532,203.8959,294.0899,0.0001954,0.98527016,0.0000,09/09.9952/2015,2000,g 10.0,4.0
# From MPC 95733
P/2015 J3 (NEOWISE),e,8.1308,111.3516,129.4317,3.349452,0.1607842,0.55450420,296.1529,03/21.0/2020,2000,g 16.5,4.0
# From MPC 95733
C/2015 K2 (PANSTARRS),e,29.0810,223.7203,15.9429,306.1941,0.0001840,0.99522145,0.0000,06/08.9182/2015,2000,g 20.0,4.0
# From MPC 95733
C/2015 K4 (PANSTARRS),h,05/01.8494/2015,80.2611,250.7326,357.7334,1.000926,2.017755,2000,15.0,4.0
# From MPC 95213
P/2015 K5 (PANSTARRS),e,39.9469,134.1904,106.2783,6.717229,0.0566133,0.55410635,99.0437,03/21.0/2020,2000,g 13.5,4.0
# From MPC111767
C/2015 LC2 (PANSTARRS),h,05/02.2919/2015,93.7222,223.6020,342.0322,1.000420,5.905969,2000,8.0,4.0
# From MPC 95734
C/2015 M1 (PANSTARRS),e,57.3305,100.1738,164.1833,450.9605,0.0001029,0.99534542,0.0000,05/15.8857/2015,2000,g 16.5,4.0
# From MPC107684
P/2015 M2 (PANSTARRS),e,3.9735,86.5788,225.1930,7.222917,0.0507733,0.18105926,84.1758,03/21.0/2020,2000,g  8.5,4.0
# From MPC115881
C/2015 M3 (PANSTARRS),e,65.8776,143.0127,123.8769,138.5690,0.0006042,0.97432278,0.0000,08/26.2461/2015,2000,g 12.0,4.0
# From MPC112390
C/2015 O1 (PANSTARRS),h,02/19.3476/2018,127.2235,299.8518,89.6307,1.000664,3.730313,2000,6.5,4.0
# From MPC 96280
C/2015 P3 (SWAN),e,58.2001,87.9910,133.1108,266.0785,0.0002271,0.99728660,0.0000,07/27.4402/2015,2000,g 15.5,4.0
# From MPC 99819
P/2015 P4 (PANSTARRS),e,8.7179,104.7671,280.5980,6.052170,0.0661969,0.58405502,100.8205,03/21.0/2020,2000,g 14.0,4.0
# From MPC102952
P/2015 PD229 (Cameron-ISON),e,2.0259,342.6515,352.3485,7.179212,0.0512376,0.32792872,86.1097,03/21.0/2020,2000,g 11.5,2.0
# From MPC 99819
P/2015 Q1 (Scotti),e,22.4021,203.0323,199.8751,3.469755,0.1524951,0.47876806,254.0708,03/21.0/2020,2000,g 14.0,4.0
# From MPC 96867
P/2015 Q2 (Pimentel),e,146.4701,228.3779,244.4146,7.344641,0.0495163,0.75125807,82.0785,03/21.0/2020,2000,g 15.5,4.0
# From MPC 98562
P/2015 R1 (PANSTARRS),e,22.6739,48.4780,300.3835,5.881421,0.0691004,0.63364379,119.4843,03/21.0/2020,2000,g 14.0,4.0
# From MPC 95734
P/2015 R2 (PANSTARRS),e,15.4724,168.6121,149.7058,4.489613,0.1036074,0.45255070,180.8134,03/21.0/2020,2000,g 14.5,4.0
# From MPC117068
C/2015 T2 (PANSTARRS),e,124.5486,51.0471,30.6707,2674,0.0000071,0.99740646,0.0000,05/18.9049/2017,2000,g  8.0,4.0
# From MPC 96280
P/2015 T3 (PANSTARRS),e,13.0937,120.5019,178.6330,4.326181,0.1095335,0.50818108,359.9227,12/21.0/2014,2000,g 14.0,4.0
# From MPC102953
C/2015 T4 (PANSTARRS),e,87.9657,251.8020,270.0579,80.32004,0.0013692,0.97139884,0.0000,06/17.4462/2016,2000,g 11.0,4.0
# From MPC102097
C/2015 T5 (Sheppard-Tholen),e,11.0494,311.0779,61.7993,28.07121,0.0066269,0.66755052,10.0721,03/21.0/2020,2000,g  7.5,4.0
# From MPC102953
P/2015 TO19 (Lemmon-PANSTARRS),e,6.4994,321.6439,89.1945,4.557644,0.1012963,0.35775072,149.5745,03/21.0/2020,2000,g 14.0,4.0
# From MPC110080
P/2015 TP200 (LINEAR),e,8.7735,6.9818,82.7178,7.282233,0.0501542,0.53489183,62.2199,03/21.0/2020,2000,g 11.0,4.0
# From MPC101097
C/2015 TQ209 (LINEAR),e,11.3056,223.3849,282.1529,681.0593,0.0000555,0.99792150,0.0000,08/26.2476/2016,2000,g 10.5,4.0
# From MPC115881
C/2015 V1 (PANSTARRS),e,139.2237,197.1898,179.6218,4236,0.0000036,0.99899241,0.0000,12/17.3301/2017,2000,g  6.5,4.0
# From MPC112390
C/2015 V2 (Johnson),h,06/12.1801/2017,49.8718,69.8598,164.9792,1.001843,1.641185,2000,5.0,4.0
# From MPC102953
